1 14077U 83047A   22132.48799166 -.00000230  00000-0  00000-0 0  9997
2 14077  14.0990 344.5480 0035652 320.1297 219.2002  0.99161952109241
1 14077U 83047A   22133.00987888 -.00000218  00000-0  00000+0 0  9991
2 14077  14.0985 344.5438 0035631 320.1096  45.5288  0.99161638109249
1 14077U 83047A   22133.51299260 -.00000206  00000-0  00000-0 0  9995
2 14077  14.0980 344.5397 0035619 320.1156 225.1312  0.99161389109259
1 14077U 83047A   22134.51924326 -.00000180  00000-0  00000-0 0  9995
2 14077  14.0969 344.5314 0035593 320.1099 224.3611  0.99160909109263
1 14077U 83047A   22136.60188270 -.00000125  00000-0  00000+0 0  9995
2 14077  14.0948 344.5142 0035543 320.1123 247.8415  0.99160008109275
1 14077U 83047A   22136.60188270 -.00000125  00000-0  00000-0 0  9996
2 14077  14.0948 344.5142 0035543 320.1123 247.8415  0.99160008109286
1 14077U 83047A   22137.02499256 -.00000114  00000-0  00000-0 0  9990
2 14077  14.0943 344.5107 0035529 320.1132  38.8846  0.99159810109281
1 14077U 83047A   22138.02884021 -.00000089  00000-0  00000-0 0  9990
2 14077  14.0933 344.5024 0035499 320.1234  37.2351  0.99159438109298
1 14077U 83047A   22139.03258802 -.00000064  00000-0  00000+0 0  9996
2 14077  14.0923 344.4940 0035464 320.1357  35.5473  0.99159133109301
1 14077U 83047A   22139.03258802 -.00000064  00000-0  00000-0 0  9997
2 14077  14.0923 344.4940 0035464 320.1357  35.5473  0.99159133109301
1 14077U 83047A   22140.53820354 -.00000030  00000-0  00000-0 0  9994
2 14077  14.0907 344.4814 0035415 320.1548 213.0091  0.99158753109329
1 14077U 83047A   22141.04022248 -.00000020  00000-0  00000+0 0  9995
2 14077  14.0902 344.4773 0035383 320.1643  32.2126  0.99158671109327
1 14077U 83047A   22141.04022248 -.00000020  00000-0  00000-0 0  9996
2 14077  14.0902 344.4773 0035383 320.1643  32.2126  0.99158671109327
1 14077U 83047A   22141.65233039 -.00000008  00000-0  00000-0 0  9991
2 14077  14.0896 344.4722 0035363 320.1622 250.7266  0.99158577109336
1 14077U 83047A   22142.54577745  .00000008  00000-0  00000-0 0  9994
2 14077  14.0887 344.4648 0035324 320.1776 209.6577  0.99158522109349
1 14077U 83047A   22143.11936920  .00000018  00000-0  00000+0 0  9992
2 14077  14.0881 344.4601 0035290 320.1928  54.4049  0.99158502109341
1 14077U 83047A   22143.62107821  .00000026  00000-0  00000-0 0  9998
2 14077  14.0876 344.4560 0035271 320.1884 233.5108  0.99158509109353
1 14077U 83047A   22144.62168821  .00000039  00000-0  00000-0 0  9990
2 14077  14.0865 344.4478 0035215 320.1898 230.7104  0.99158579109365
1 14077U 83047A   22145.01954073  .00000043  00000-0  00000-0 0  9991
2 14077  14.0861 344.4446 0035190 320.1949  12.7326  0.99158639109366
1 14077U 83047A   22145.71637586  .00000050  00000-0  00000+0 0  9992
2 14077  14.0853 344.4389 0035155 320.1877 261.4974  0.99158723109360
1 14077U 83047A   22145.71637586  .00000050  00000-0  00000-0 0  9993
2 14077  14.0853 344.4389 0035155 320.1877 261.4974  0.99158723109371
1 14077U 83047A   22146.09302740  .00000053  00000-0  00000-0 0  9999
2 14077  14.0849 344.4359 0035113 320.1751  35.9680  0.99158782109371
1 14077U 83047A   22146.61003253  .00000057  00000-0  00000-0 0  9998
2 14077  14.0843 344.4317 0035087 320.1631 220.5414  0.99158867109388
1 14077U 83047A   22147.60527071  .00000061  00000-0  00000-0 0  9992
2 14077  14.0832 344.4237 0035022 320.1419 215.8484  0.99159158109399
1 14077U 83047A   22150.73006590  .00000049  00000-0  00000+0 0  9993
2 14077  14.0798 344.3985 0034837 320.0570 251.4439  0.99160300109419
1 14077U 83047A   22150.73006590  .00000048  00000-0  00000-0 0  9993
2 14077  14.0798 344.3985 0034837 320.0570 251.4439  0.99160300109420
1 14077U 83047A   22151.58540438  .00000039  00000-0  00000-0 0  9991
2 14077  14.0788 344.3916 0034795 320.0268 196.8211  0.99160673109434
1 14077U 83047A   22152.64851358  .00000024  00000-0  00000-0 0  9999
2 14077  14.0777 344.3829 0034756 319.9968 216.3707  0.99161136109440
1 14077U 83047A   22153.65897966  .00000006  00000-0  00000-0 0  9996
2 14077  14.0766 344.3747 0034714 319.9557 217.1402  0.99161592109453
1 14077U 83047A   22154.16096792 -.00000003  00000-0  00000+0 0  9998
2 14077  14.0761 344.3707 0034697 319.9255  36.3787  0.99161864109458
1 14077U 83047A   22154.16096792 -.00000003  00000-0  00000-0 0  9999
2 14077  14.0761 344.3707 0034697 319.9255  36.3787  0.99161864109458
1 14077U 83047A   22154.66262059 -.00000013  00000-0  00000-0 0  9996
2 14077  14.0755 344.3666 0034675 319.9121 215.4798  0.99162101109461
1 14077U 83047A   22155.16461544 -.00000024  00000-0  00000-0 0  9994
2 14077  14.0750 344.3625 0034660 319.8763  34.7267  0.99162364109460
1 14077U 83047A   22155.66638167 -.00000035  00000-0  00000-0 0  9998
2 14077  14.0744 344.3585 0034644 319.8711 213.8595  0.99162557109472
1 14077U 83047A   22156.16839941 -.00000046  00000-0  00000+0 0  9998
2 14077  14.0739 344.3544 0034630 319.8297  33.1205  0.99162800109477
1 14077U 83047A   22156.63685314 -.00000057  00000-0  00000-0 0  9996
2 14077  14.0734 344.3506 0034597 319.7987 200.3882  0.99162985109481
1 14077U 83047A   22157.17219206 -.00000069  00000-0  00000-0 0  9992
2 14077  14.0728 344.3462 0034574 319.7391  31.5639  0.99163229109485
1 14077U 83047A   22157.67397758 -.00000081  00000-0  00000-0 0  9990
2 14077  14.0723 344.3422 0034560 319.7308 210.7074  0.99163375109496
1 14077U 83047A   22158.18243834 -.00000093  00000-0  00000+0 0  9994
2 14077  14.0717 344.3380 0034538 319.6682  32.2923  0.99163612109495
1 14077U 83047A   22158.18243834 -.00000093  00000-0  00000-0 0  9995
2 14077  14.0717 344.3380 0034538 319.6682  32.2923  0.99163612109495
1 14077U 83047A   22158.74928439 -.00000106  00000-0  00000-0 0  9993
2 14077  14.0712 344.3333 0034500 319.6270 234.6967  0.99163771109504
1 14077U 83047A   22159.25124519 -.00000118  00000-0  00000-0 0  9990
2 14077  14.0706 344.3293 0034491 319.5784  53.9481  0.99163987109513
1 14077U 83047A   22159.68153684 -.00000128  00000-0  00000-0 0  9993
2 14077  14.0702 344.3258 0034473 319.5681 207.5722  0.99164082109518
1 14077U 83047A   22160.25501925 -.00000140  00000-0  00000-0 0  9997
2 14077  14.0696 344.3211 0034460 319.5124  52.3647  0.99164297109528
1 14077U 83047A   22160.75679167 -.00000152  00000-0  00000+0 0  9998
2 14077  14.0690 344.3170 0034446 319.5130 231.4984  0.99164414109511
1 14077U 83047A   22160.75679167 -.00000152  00000-0  00000-0 0  9999
2 14077  14.0690 344.3170 0034446 319.5130 231.4984  0.99164414109522
1 14077U 83047A   22161.22480038 -.00000162  00000-0  00000-0 0  9990
2 14077  14.0685 344.3131 0034442 319.4714  38.6213  0.99164531109528
1 14077U 83047A   22161.76060242 -.00000173  00000-0  00000-0 0  9992
2 14077  14.0680 344.3088 0034421 319.4569 229.9186  0.99164614109536
1 14077U 83047A   22163.26637716 -.00000203  00000-0  00000+0 0  9998
2 14077  14.0664 344.2962 0034407 319.4036  47.5421  0.99164843109542
1 14077U 83047A   22163.26637716 -.00000203  00000-0  00000-0 0  9999
2 14077  14.0664 344.2962 0034407 319.4036  47.5421  0.99164843109553
1 14077U 83047A   22163.76812174 -.00000212  00000-0  00000-0 0  9997
2 14077  14.0659 344.2920 0034400 319.4108 226.6598  0.99164859109556
1 14077U 83047A   22164.27016704 -.00000221  00000-0  00000-0 0  9999
2 14077  14.0653 344.2878 0034401 319.3970  45.9076  0.99164908109568
1 14077U 83047A   22165.27387083 -.00000237  00000-0  00000+0 0  9997
2 14077  14.0643 344.2794 0034379 319.3722  44.2612  0.99164921109566
1 14077U 83047A   22165.27387083 -.00000237  00000-0  00000-0 0  9998
2 14077  14.0643 344.2794 0034379 319.3722  44.2612  0.99164921109577
1 14077U 83047A   22166.27966191 -.00000251  00000-0  00000-0 0  9998
2 14077  14.0632 344.2711 0034334 319.3150  43.3928  0.99164887109582
1 14077U 83047A   22170.29253580 -.00000278  00000-0  00000-0 0  9995
2 14077  14.0591 344.2374 0034135 319.0865  36.2355  0.99164114109612
1 14077U 83047A   22170.29253580 -.00000278  00000-0  00000+0 0  9994
2 14077  14.0591 344.2374 0034135 319.0865  36.2355  0.99164114109612
1 14077U 83047A   22171.29627808 -.00000276  00000-0  00000-0 0  9992
2 14077  14.0580 344.2291 0034091 319.0485  34.6135  0.99163852109624
1 14077U 83047A   22172.32063247 -.00000270  00000-0  00000+0 0  9991
2 14077  14.0570 344.2206 0034009 318.9279  40.4301  0.99163522109632
1 14077U 83047A   22172.32063247 -.00000270  00000-0  00000-0 0  9992
2 14077  14.0570 344.2206 0034009 318.9279  40.4301  0.99163522109632
1 14077U 83047A   22173.30368865 -.00000261  00000-0  00000-0 0  9995
2 14077  14.0559 344.2126 0033965 318.8891  31.4186  0.99163147109644
1 14077U 83047A   22173.80551307 -.00000255  00000-0  00000-0 0  9998
2 14077  14.0554 344.2084 0033947 318.8422 210.6150  0.99162924109657
1 14077U 83047A   22174.37902831 -.00000248  00000-0  00000+0 0  9994
2 14077  14.0548 344.2037 0033915 318.8205  55.3807  0.99162714109652
1 14077U 83047A   22174.80923844 -.00000242  00000-0  00000-0 0  9994
2 14077  14.0543 344.2001 0033902 318.7845 208.9998  0.99162530109667
1 14077U 83047A   22175.31785442 -.00000234  00000-0  00000-0 0  9992
2 14077  14.0537 344.1960 0033873 318.7700  30.5873  0.99162311109668
1 14077U 83047A   22176.42398774 -.00000216  00000-0  00000+0 0  9992
2 14077  14.0526 344.1868 0033821 318.6616  65.5854  0.99162001109675
1 14077U 83047A   22176.42398774 -.00000216  00000-0  00000-0 0  9993
2 14077  14.0526 344.1868 0033821 318.6616  65.5854  0.99162001109686
1 14077U 83047A   22176.88821295 -.00000207  00000-0  00000-0 0  9992
2 14077  14.0522 344.1830 0033807 318.6172 231.3548  0.99161802109683
1 14077U 83047A   22177.39025904 -.00000198  00000-0  00000-0 0  9991
2 14077  14.0516 344.1790 0033781 318.5889  50.6098  0.99161601109696
1 14077U 83047A   22177.86507748 -.00000189  00000-0  00000-0 0  9994
2 14077  14.0511 344.1751 0033766 318.5421 220.1636  0.99161424109698
1 14077U 83047A   22178.39397179 -.00000178  00000-0  00000-0 0  9996
2 14077  14.0505 344.1708 0033736 318.4935  49.0238  0.99161242109705
